1 27424U 02022A   12267.36128819 -.00000087  00000-0 -93557-5 0  4335
2 27424 098.2027 206.4036 0001540 072.6539 287.4722 14.57121915552664